{"type": "FeatureCollection", "features": [ {"type": "Feature", "properties": {"norad_id": 35961, "name": "COSMOS 2251 DEB", "group": "cosmos-2251-debris", "lat": -60.51660894608491, "lon": 61.60475907206678, "alt_km": 902.7417023962325, "timestamp": "2025-12-08T21:31:05.063401+00:00", "meta": {"OBJECT_NAME": "COSMOS 2251 DEB", "OBJECT_ID": "1993-036AVB", "EPOCH": "2025-11-29T09:08:47.173056", "MEAN_MOTION": 14.05319505, "ECCENTRICITY": 0.01924432, "INCLINATION": 73.9254, "RA_OF_ASC_NODE": 227.671, "ARG_OF_PERICENTER": 163.9834, "MEAN_ANOMALY": 196.7506, "EPHEMERIS_TYPE": 0, "CLASSIFICATION_TYPE": "U", "NORAD_CAT_ID": 35961, "ELEMENT_SET_NO": 999, "REV_AT_EPOCH": 62494, "BSTAR": 0.00062484461, "MEAN_MOTION_DOT": 1.171e-05, "MEAN_MOTION_DDOT": 0}, "tle": {"line1": "1 35961U 93036AVB 25333.38110154  .00001171  00000+0  62484-3 0  9990", "line2": "2 35961  73.9254 227.6710 0192443 163.9834 196.7506 14.05319505624940"}}, "geometry": {"type": "Point", "coordinates": [61.60475907206678, -60.51660894608491]}}, {"type": "Feature", "properties": {"norad_id": 35979, "name": "COSMOS 2251 DEB", "group": "cosmos-2251-debris", "lat": -67.73057322095207, "lon": 110.34608478822985, "alt_km": 676.7117066862511, "timestamp": "2025-12-08T21:31:05.063411+00:00", "meta": {"OBJECT_NAME": "COSMOS 2251 DEB", "OBJECT_ID": "1993-036AVV", "EPOCH": "2025-12-07T00:28:15.848832", "MEAN_MOTION": 14.74528809, "ECCENTRICITY": 0.00587537, "INCLINATION": 74.0106, "RA_OF_ASC_NODE": 249.5726, "ARG_OF_PERICENTER": 23.061, "MEAN_ANOMALY": 352.2989, "EPHEMERIS_TYPE": 0, "CLASSIFICATION_TYPE": "U", "NORAD_CAT_ID": 35979, "ELEMENT_SET_NO": 999, "REV_AT_EPOCH": 88549, "BSTAR": 0.0016160682, "MEAN_MOTION_DOT": 0.00011041, "MEAN_MOTION_DDOT": 0}, "tle": {"line1": "1 35979U 93036AVV 25341.01962788  .00011041  00000+0  16161-2 0  9993", "line2": "2 35979  74.0106 249.5726 0058753  23.0610 352.2989 14.74528809885498"}}, "geometry": {"type": "Point", "coordinates": [110.34608478822985, -67.73057322095207]}}, {"type": "Feature", "properties": {"norad_id": 35980, "name": "COSMOS 2251 DEB", "group": "cosmos-2251-debris", "lat": -13.969585462778427, "lon": 125.9488416897417, "alt_km": 693.9518014926107, "timestamp": "2025-12-08T21:31:05.063421+00:00", "meta": {"OBJECT_NAME": "COSMOS 2251 DEB", "OBJECT_ID": "1993-036AVW", "EPOCH": "2025-12-02T19:08:08.015136", "MEAN_MOTION": 14.59062146, "ECCENTRICITY": 0.00537712, "INCLINATION": 73.91, "RA_OF_ASC_NODE": 141.7735, "ARG_OF_PERICENTER": 277.5645, "MEAN_ANOMALY": 81.9413, "EPHEMERIS_TYPE": 0, "CLASSIFICATION_TYPE": "U", "NORAD_CAT_ID": 35980, "ELEMENT_SET_NO": 999, "REV_AT_EPOCH": 61341, "BSTAR": 0.002036555, "MEAN_MOTION_DOT": 9.752e-05, "MEAN_MOTION_DDOT": 0}, "tle": {"line1": "1 35980U 93036AVW 25336.79731499  .00009752  00000+0  20366-2 0  9995", "line2": "2 35980  73.9100 141.7735 0053771 277.5645  81.9413 14.59062146613413"}}, "geometry": {"type": "Point", "coordinates": [125.9488416897417, -13.969585462778427]}}, {"type": "Feature", "properties": {"norad_id": 35982, "name": "COSMOS 2251 DEB", "group": "cosmos-2251-debris", "lat": -39.68607501046404, "lon": -171.99348002191684, "alt_km": 732.9696361917831, "timestamp": "2025-12-08T21:31:05.063441+00:00", "meta": {"OBJECT_NAME": "COSMOS 2251 DEB", "OBJECT_ID": "1993-036AVY", "EPOCH": "2025-12-08T10:39:50.053248", "MEAN_MOTION": 14.62714143, "ECCENTRICITY": 0.00640459, "INCLINATION": 74.0585, "RA_OF_ASC_NODE": 355.1514, "ARG_OF_PERICENTER": 62.7677, "MEAN_ANOMALY": 297.9996, "EPHEMERIS_TYPE": 0, "CLASSIFICATION_TYPE": "U", "NORAD_CAT_ID": 35982, "ELEMENT_SET_NO": 999, "REV_AT_EPOCH": 86103, "BSTAR": 0.00083154209, "MEAN_MOTION_DOT": 4.334e-05, "MEAN_MOTION_DDOT": 0}, "tle": {"line1": "1 35982U 93036AVY 25342.44432932  .00004334  00000+0  83154-3 0  9992", "line2": "2 35982  74.0585 355.1514 0064045  62.7677 297.9996 14.62714143861038"}}, "geometry": {"type": "Point", "coordinates": [-171.99348002191684, -39.68607501046404]}}, {"type": "Feature", "properties": {"norad_id": 35987, "name": "COSMOS 2251 DEB", "group": "cosmos-2251-debris", "lat": 51.19887075422081, "lon": 132.88867450186711, "alt_km": 713.569979987893, "timestamp": "2025-12-08T21:31:05.063452+00:00", "meta": {"OBJECT_NAME": "COSMOS 2251 DEB", "OBJECT_ID": "1993-036AWD", "EPOCH": "2025-12-08T05:58:00.511392", "MEAN_MOTION": 14.4308304, "ECCENTRICITY": 0.00458991, "INCLINATION": 73.9997, "RA_OF_ASC_NODE": 335.0019, "ARG_OF_PERICENTER": 102.0348, "MEAN_ANOMALY": 258.5958, "EPHEMERIS_TYPE": 0, "CLASSIFICATION_TYPE": "U", "NORAD_CAT_ID": 35987, "ELEMENT_SET_NO": 999, "REV_AT_EPOCH": 61000, "BSTAR": 0.0014339453, "MEAN_MOTION_DOT": 4.848e-05, "MEAN_MOTION_DDOT": 0}, "tle": {"line1": "1 35987U 93036AWD 25342.24861703  .00004848  00000+0  14339-2 0  9995", "line2": "2 35987  73.9997 335.0019 0045899 102.0348 258.5958 14.43083040610008"}}, "geometry": {"type": "Point", "coordinates": [132.88867450186711, 51.19887075422081]}}, {"type": "Feature", "properties": {"norad_id": 35989, "name": "COSMOS 2251 DEB", "group": "cosmos-2251-debris", "lat": -67.12836553090409, "lon": 153.62509554075106, "alt_km": 782.9099479196484, "timestamp": "2025-12-08T21:31:05.063463+00:00", "meta": {"OBJECT_NAME": "COSMOS 2251 DEB", "OBJECT_ID": "1993-036AWF", "EPOCH": "2025-12-06T04:51:17.856864", "MEAN_MOTION": 14.37086268, "ECCENTRICITY": 0.00218316, "INCLINATION": 74.0371, "RA_OF_ASC_NODE": 295.8482, "ARG_OF_PERICENTER": 19.4894, "MEAN_ANOMALY": 340.7089, "EPHEMERIS_TYPE": 0, "CLASSIFICATION_TYPE": "U", "NORAD_CAT_ID": 35989, "ELEMENT_SET_NO": 999, "REV_AT_EPOCH": 87085, "BSTAR": 0.00043011654, "MEAN_MOTION_DOT": 1.255e-05, "MEAN_MOTION_DDOT": 0}, "tle": {"line1": "1 35989U 93036AWF 25340.20229001  .00001255  00000+0  43012-3 0  9990", "line2": "2 35989  74.0371 295.8482 0021831  19.4894 340.7089 14.37086268870850"}}, "geometry": {"type": "Point", "coordinates": [153.62509554075106, -67.12836553090409]}}, {"type": "Feature", "properties": {"norad_id": 35993, "name": "COSMOS 2251 DEB", "group": "cosmos-2251-debris", "lat": 69.93206715024205, "lon": 108.51415448072488, "alt_km": 661.6207134702736, "timestamp": "2025-12-08T21:31:05.063472+00:00", "meta": {"OBJECT_NAME": "COSMOS 2251 DEB", "OBJECT_ID": "1993-036AWK", "EPOCH": "2025-12-06T18:15:16.240032", "MEAN_MOTION": 14.6523351, "ECCENTRICITY": 0.00292405, "INCLINATION": 74.0149, "RA_OF_ASC_NODE": 344.3189, "ARG_OF_PERICENTER": 175.7917, "MEAN_ANOMALY": 184.3503, "EPHEMERIS_TYPE": 0, "CLASSIFICATION_TYPE": "U", "NORAD_CAT_ID": 35993, "ELEMENT_SET_NO": 999, "REV_AT_EPOCH": 60355, "BSTAR": 0.0012689745, "MEAN_MOTION_DOT": 6.854e-05, "MEAN_MOTION_DDOT": 0}, "tle": {"line1": "1 35993U 93036AWK 25340.76060463  .00006854  00000+0  12690-2 0  9998", "line2": "2 35993  74.0149 344.3189 0029240 175.7917 184.3503 14.65233510603555"}}, "geometry": {"type": "Point", "coordinates": [108.51415448072488, 69.93206715024205]}}, {"type": "Feature", "properties": {"norad_id": 35996, "name": "COSMOS 2251 DEB", "group": "cosmos-2251-debris", "lat": -53.09355090538763, "lon": 88.91539964484743, "alt_km": 556.7063498388561, "timestamp": "2025-12-08T21:31:05.063483+00:00", "meta": {"OBJECT_NAME": "COSMOS 2251 DEB", "OBJECT_ID": "1993-036AWN", "EPOCH": "2025-12-06T15:40:07.668192", "MEAN_MOTION": 15.08900528, "ECCENTRICITY": 0.00890114, "INCLINATION": 74.0155, "RA_OF_ASC_NODE": 115.9821, "ARG_OF_PERICENTER": 208.3907, "MEAN_ANOMALY": 151.2421, "EPHEMERIS_TYPE": 0, "CLASSIFICATION_TYPE": "U", "NORAD_CAT_ID": 35996, "ELEMENT_SET_NO": 999, "REV_AT_EPOCH": 72234, "BSTAR": 0.001269926, "MEAN_MOTION_DOT": 0.00021998, "MEAN_MOTION_DDOT": 0}, "tle": {"line1": "1 35996U 93036AWN 25340.65286653  .00021998  00000+0  12699-2 0  9995", "line2": "2 35996  74.0155 115.9821 0089011 208.3907 151.2421 15.08900528722343"}}, "geometry": {"type": "Point", "coordinates": [88.91539964484743, -53.09355090538763]}}, {"type": "Feature", "properties": {"norad_id": 35997, "name": "COSMOS 2251 DEB", "group": "cosmos-2251-debris", "lat": 62.93024380344345, "lon": -19.524962975399518, "alt_km": 725.3925476094428, "timestamp": "2025-12-08T21:31:05.063493+00:00", "meta": {"OBJECT_NAME": "COSMOS 2251 DEB", "OBJECT_ID": "1993-036AWP", "EPOCH": "2025-12-08T07:46:01.905888", "MEAN_MOTION": 14.51283531, "ECCENTRICITY": 0.00158531, "INCLINATION": 74.0427, "RA_OF_ASC_NODE": 195.599, "ARG_OF_PERICENTER": 271.3271, "MEAN_ANOMALY": 88.6073, "EPHEMERIS_TYPE": 0, "CLASSIFICATION_TYPE": "U", "NORAD_CAT_ID": 35997, "ELEMENT_SET_NO": 999, "REV_AT_EPOCH": 70820, "BSTAR": 0.00095919094, "MEAN_MOTION_DOT": 3.797e-05, "MEAN_MOTION_DDOT": 0}, "tle": {"line1": "1 35997U 93036AWP 25342.32363317  .00003797  00000+0  95919-3 0  9999", "line2": "2 35997  74.0427 195.5990 0015853 271.3271  88.6073 14.51283531708204"}}, "geometry": {"type": "Point", "coordinates": [-19.524962975399518, 62.93024380344345]}}, {"type": "Feature", "properties": {"norad_id": 36005, "name": "COSMOS 2251 DEB", "group": "cosmos-2251-debris", "lat": -17.123037300686807, "lon": -73.7411025935462, "alt_km": 705.7525272249259, "timestamp": "2025-12-08T21:31:05.063503+00:00", "meta": {"OBJECT_NAME": "COSMOS 2251 DEB", "OBJECT_ID": "1993-036AWX", "EPOCH": "2025-12-08T08:59:25.241280", "MEAN_MOTION": 14.47347528, "ECCENTRICITY": 0.00620288, "INCLINATION": 74.0263, "RA_OF_ASC_NODE": 102.1725, "ARG_OF_PERICENTER": 240.4032, "MEAN_ANOMALY": 119.0938, "EPHEMERIS_TYPE": 0, "CLASSIFICATION_TYPE": "U", "NORAD_CAT_ID": 36005, "ELEMENT_SET_NO": 999, "REV_AT_EPOCH": 87521, "BSTAR": 0.00041446573, "MEAN_MOTION_DOT": 1.527e-05, "MEAN_MOTION_DDOT": 0}, "tle": {"line1": "1 36005U 93036AWX 25342.37459770  .00001527  00000+0  41447-3 0  9990", "line2": "2 36005  74.0263 102.1725 0062028 240.4032 119.0938 14.47347528875218"}}, "geometry": {"type": "Point", "coordinates": [-73.7411025935462, -17.123037300686807]}}]}